SL-16 R/B               
1 25407U 98045B   26094.28355520  .00000083  00000+0  65946-4 0  9999
2 25407  71.0090 127.7530 0008226 330.5545  29.5114 14.16193545430722
ISS (ZARYA)             
1 25544U 98067A   26094.06925453  .00011847  00000+0  22464-3 0  9996
2 25544  51.6326 306.8840 0006251 269.7954  90.2318 15.48758130560264
CZ-4B R/B               
1 25732U 99025C   26094.13371256  .00000086  00000+0  62560-4 0  9999
2 25732  98.6573 137.8064 0035977 271.6847 151.1591 14.18270738391775
OKEAN-O                 
1 25860U 99039A   26094.13432624  .00001168  00000+0  15983-3 0  9991
2 25860  97.9389 153.7604 0000924 103.2505 256.8810 14.80379840438150
SL-16 R/B               
1 25861U 99039B   26094.15782914  .00001019  00000+0  13580-3 0  9990
2 25861  97.9912 153.2095 0015050 169.6846 190.4678 14.81769655440631
DELTA 2 R/B             
1 25876U 99041E   26094.28028046  .00000993  00000+0  19920-3 0  9996
2 25876  51.7610 199.0514 0502625  63.8946 301.2810 14.11898885366648
HELIOS 1B               
1 25977U 99064A   26094.27136102  .00003539  00000+0  39374-3 0  9999
2 25977  98.1669 357.2640 0001498  44.1939 315.9396 14.87806043689066
TERRA                   
1 25994U 99068A   26094.26120273  .00000777  00000+0  16741-3 0  9997
2 25994  97.9539 146.7122 0003671  99.1126 325.8657 14.61044406398816
SL-16 R/B               
1 26070U 00006B   26094.23499230  .00000115  00000+0  82879-4 0  9998
2 26070  71.0039  44.1205 0015238 149.7346 210.4661 14.15831083352178
TITAN 4B R/B            
1 26474U 00047B   26094.20382510  .00005857  00000+0  36271-3 0  9992
2 26474  67.9903 328.7553 0040348   5.5420 354.6167 15.09807059396764
ENVISAT                 
1 27386U 02009A   26094.28960774  .00000206  00000+0  80455-4 0  9994
2 27386  98.3771  47.2842 0001179  82.2846  85.8357 14.39046564262859
IDEFIX & ARIANE 42P R/B 
1 27422U 02021B   26094.22624895  .00000459  00000+0  19075-3 0  9993
2 27422  98.5899  32.5319 0012862 110.0594 250.1975 14.31044908247678
